1 08820U 76039A   03098.89936969  .00000004  00000-0  10000-3 0  9136
2 08820 109.8093 157.8836 0044658 316.2868  43.4349  6.38664518372634
